NUSAT-48 (HENRIETTA LE*)
1 60498U 24149AG  26068.80506098  .00012988  00000+0  45212-3 0  9999
2 60498  97.3923 150.8264 0002754 263.3026  96.7901 15.29812597 86946
STARLINK-32346          
1 61849U 24202E   26068.48254609 -.00000579  00000+0 -11504-4 0  9995
2 61849  43.0040 228.1127 0001955 284.2034  75.8601 15.27573633 75424
